[{"OBJECT_NAME":"ICEYE-X41","OBJECT_ID":"2025-009CV","EPOCH":"2026-03-09T16:55:08.694336","MEAN_MOTION":14.96071666,"ECCENTRICITY":0.00019001,"INCLINATION":97.711,"RA_OF_ASC_NODE":149.7146,"ARG_OF_PERICENTER":53.5813,"MEAN_ANOMALY":306.5584,"EPHEMERIS_TYPE":0,"CLASSIFICATION_TYPE":"U","NORAD_CAT_ID":62700,"ELEMENT_SET_NO":999,"REV_AT_EPOCH":6253,"BSTAR":0.00045867277,"MEAN_MOTION_DOT":5.098e-5,"MEAN_MOTION_DDOT":0},{"OBJECT_NAME":"STARLINK-34608","OBJECT_ID":"2025-150W","EPOCH":"2026-03-09T13:59:09.467808","MEAN_MOTION":14.98326574,"ECCENTRICITY":0.0003269,"INCLINATION":70.002,"RA_OF_ASC_NODE":134.6149,"ARG_OF_PERICENTER":266.7801,"MEAN_ANOMALY":93.2984,"EPHEMERIS_TYPE":0,"CLASSIFICATION_TYPE":"U","NORAD_CAT_ID":64810,"ELEMENT_SET_NO":999,"REV_AT_EPOCH":3650,"BSTAR":0.0002357,"MEAN_MOTION_DOT":2.72e-5,"MEAN_MOTION_DDOT":0}]
